[{"OBJECT_NAME":"CZ-2D R/B","OBJECT_ID":"2005-024B","EPOCH":"2026-03-03T23:59:53.239200","MEAN_MOTION":15.59546967,"ECCENTRICITY":0.0006724,"INCLINATION":97.3594,"RA_OF_ASC_NODE":77.9392,"ARG_OF_PERICENTER":61.1543,"MEAN_ANOMALY":299.0388,"EPHEMERIS_TYPE":0,"CLASSIFICATION_TYPE":"U","NORAD_CAT_ID":28738,"ELEMENT_SET_NO":999,"REV_AT_EPOCH":13889,"BSTAR":0.0007072,"MEAN_MOTION_DOT":0.0005639,"MEAN_MOTION_DDOT":0},{"OBJECT_NAME":"ALOS (DAICHI)","OBJECT_ID":"2006-002A","EPOCH":"2026-03-03T20:27:37.334880","MEAN_MOTION":14.69787621,"ECCENTRICITY":0.00011339,"INCLINATION":98.1208,"RA_OF_ASC_NODE":18.8377,"ARG_OF_PERICENTER":51.0197,"MEAN_ANOMALY":309.1109,"EPHEMERIS_TYPE":0,"CLASSIFICATION_TYPE":"U","NORAD_CAT_ID":28931,"ELEMENT_SET_NO":999,"REV_AT_EPOCH":7262,"BSTAR":0.00033384641,"MEAN_MOTION_DOT":1.943e-5,"MEAN_MOTION_DDOT":0},{"OBJECT_NAME":"H-2A R/B","OBJECT_ID":"2006-002B","EPOCH":"2026-03-04T00:00:07.274016","MEAN_MOTION":15.16272452,"ECCENTRICITY":0.005187,"INCLINATION":98.24,"RA_OF_ASC_NODE":209.5357,"ARG_OF_PERICENTER":260.584,"MEAN_ANOMALY":98.9524,"EPHEMERIS_TYPE":0,"CLASSIFICATION_TYPE":"U","NORAD_CAT_ID":28932,"ELEMENT_SET_NO":999,"REV_AT_EPOCH":9357,"BSTAR":0.00069344,"MEAN_MOTION_DOT":0.00013824,"MEAN_MOTION_DDOT":0},{"OBJECT_NAME":"RESURS-DK 1","OBJECT_ID":"2006-021A","EPOCH":"2026-03-03T21:57:22.602816","MEAN_MOTION":15.12697372,"ECCENTRICITY":0.0002432,"INCLINATION":69.9304,"RA_OF_ASC_NODE":251.9622,"ARG_OF_PERICENTER":165.6205,"MEAN_ANOMALY":194.5031,"EPHEMERIS_TYPE":0,"CLASSIFICATION_TYPE":"U","NORAD_CAT_ID":29228,"ELEMENT_SET_NO":999,"REV_AT_EPOCH":8665,"BSTAR":0.00021006,"MEAN_MOTION_DOT":3.579e-5,"MEAN_MOTION_DDOT":0},{"OBJECT_NAME":"CZ-4B R/B","OBJECT_ID":"2006-046C","EPOCH":"2026-03-04T03:12:53.122752","MEAN_MOTION":15.16836244,"ECCENTRICITY":0.0031726,"INCLINATION":97.5602,"RA_OF_ASC_NODE":108.0574,"ARG_OF_PERICENTER":287.508,"MEAN_ANOMALY":72.2686,"EPHEMERIS_TYPE":0,"CLASSIFICATION_TYPE":"U","NORAD_CAT_ID":29507,"ELEMENT_SET_NO":999,"REV_AT_EPOCH":5920,"BSTAR":0.00036992,"MEAN_MOTION_DOT":7.3e-5,"MEAN_MOTION_DDOT":0},{"OBJECT_NAME":"CZ-2C R/B","OBJECT_ID":"2007-010B","EPOCH":"2026-03-04T03:50:52.159488","MEAN_MOTION":14.20243958,"ECCENTRICITY":0.0058051,"INCLINATION":98.3977,"RA_OF_ASC_NODE":176.7164,"ARG_OF_PERICENTER":310.9805,"MEAN_ANOMALY":48.6359,"EPHEMERIS_TYPE":0,"CLASSIFICATION_TYPE":"U","NORAD_CAT_ID":31114,"ELEMENT_SET_NO":999,"REV_AT_EPOCH":97893,"BSTAR":0.0001001,"MEAN_MOTION_DOT":1.76e-6,"MEAN_MOTION_DDOT":0},{"OBJECT_NAME":"COSMO-SKYMED 1","OBJECT_ID":"2007-023A","EPOCH":"2026-03-04T04:21:35.717760","MEAN_MOTION":14.96483104,"ECCENTRICITY":8.23e-5,"INCLINATION":97.8861,"RA_OF_ASC_NODE":254.1701,"ARG_OF_PERICENTER":90.6181,"MEAN_ANOMALY":269.5134,"EPHEMERIS_TYPE":0,"CLASSIFICATION_TYPE":"U","NORAD_CAT_ID":31598,"ELEMENT_SET_NO":999,"REV_AT_EPOCH":1408,"BSTAR":0.00043923,"MEAN_MOTION_DOT":4.929e-5,"MEAN_MOTION_DDOT":0},{"OBJECT_NAME":"COSMOS 2428","OBJECT_ID":"2007-029A","EPOCH":"2026-03-03T19:12:27.706752","MEAN_MOTION":14.12944514,"ECCENTRICITY":0.0008791,"INCLINATION":70.9422,"RA_OF_ASC_NODE":215.7044,"ARG_OF_PERICENTER":283.2816,"MEAN_ANOMALY":76.7324,"EPHEMERIS_TYPE":0,"CLASSIFICATION_TYPE":"U","NORAD_CAT_ID":31792,"ELEMENT_SET_NO":999,"REV_AT_EPOCH":96326,"BSTAR":6.2227e-5,"MEAN_MOTION_DOT":6.8e-7,"MEAN_MOTION_DDOT":0},{"OBJECT_NAME":"SL-16 R/B","OBJECT_ID":"2007-029B","EPOCH":"2026-03-03T18:36:26.192160","MEAN_MOTION":14.14833889,"ECCENTRICITY":0.00024267,"INCLINATION":70.9756,"RA_OF_ASC_NODE":184.816,"ARG_OF_PERICENTER":278.0929,"MEAN_ANOMALY":189.2811,"EPHEMERIS_TYPE":0,"CLASSIFICATION_TYPE":"U","NORAD_CAT_ID":31793,"ELEMENT_SET_NO":999,"REV_AT_EPOCH":96453,"BSTAR":-5.4637316e-5,"MEAN_MOTION_DOT":-1.53e-6,"MEAN_MOTION_DDOT":0},{"OBJECT_NAME":"KORONAS-FOTON","OBJECT_ID":"2009-003A","EPOCH":"2026-03-04T01:23:59.058816","MEAN_MOTION":15.4316753,"ECCENTRICITY":0.0010838,"INCLINATION":82.428,"RA_OF_ASC_NODE":281.7334,"ARG_OF_PERICENTER":168.7833,"MEAN_ANOMALY":191.3658,"EPHEMERIS_TYPE":0,"CLASSIFICATION_TYPE":"U","NORAD_CAT_ID":33504,"ELEMENT_SET_NO":999,"REV_AT_EPOCH":94487,"BSTAR":0.0004032,"MEAN_MOTION_DOT":0.00017953,"MEAN_MOTION_DDOT":0},{"OBJECT_NAME":"CZ-2C R/B","OBJECT_ID":"2011-030B","EPOCH":"2026-03-03T19:14:42.592704","MEAN_MOTION":14.81194075,"ECCENTRICITY":0.00529662,"INCLINATION":97.8533,"RA_OF_ASC_NODE":20.1831,"ARG_OF_PERICENTER":11.2331,"MEAN_ANOMALY":47.641,"EPHEMERIS_TYPE":0,"CLASSIFICATION_TYPE":"U","NORAD_CAT_ID":37731,"ELEMENT_SET_NO":999,"REV_AT_EPOCH":78922,"BSTAR":0.00031135661,"MEAN_MOTION_DOT":2.427e-5,"MEAN_MOTION_DDOT":0},{"OBJECT_NAME":"H-2A R/B","OBJECT_ID":"2012-025E","EPOCH":"2026-03-03T20:08:34.856448","MEAN_MOTION":14.95104186,"ECCENTRICITY":0.00438857,"INCLINATION":98.4716,"RA_OF_ASC_NODE":29.417,"ARG_OF_PERICENTER":333.6566,"MEAN_ANOMALY":26.2421,"EPHEMERIS_TYPE":0,"CLASSIFICATION_TYPE":"U","NORAD_CAT_ID":38341,"ELEMENT_SET_NO":999,"REV_AT_EPOCH":74734,"BSTAR":0.00050126201,"MEAN_MOTION_DOT":5.533e-5,"MEAN_MOTION_DDOT":0},{"OBJECT_NAME":"SHIJIAN-16 (SJ-16)","OBJECT_ID":"2013-057A","EPOCH":"2026-03-04T04:46:18.477408","MEAN_MOTION":14.92316799,"ECCENTRICITY":0.0015625,"INCLINATION":74.9733,"RA_OF_ASC_NODE":195.4807,"ARG_OF_PERICENTER":126.9807,"MEAN_ANOMALY":233.2814,"EPHEMERIS_TYPE":0,"CLASSIFICATION_TYPE":"U","NORAD_CAT_ID":39358,"ELEMENT_SET_NO":999,"REV_AT_EPOCH":67068,"BSTAR":0.00049301,"MEAN_MOTION_DOT":5.024e-5,"MEAN_MOTION_DDOT":0},{"OBJECT_NAME":"SL-4 R/B","OBJECT_ID":"2014-021B","EPOCH":"2026-03-04T02:38:03.562080","MEAN_MOTION":15.38961697,"ECCENTRICITY":0.0097984,"INCLINATION":51.6089,"RA_OF_ASC_NODE":4.4953,"ARG_OF_PERICENTER":82.6607,"MEAN_ANOMALY":278.55,"EPHEMERIS_TYPE":0,"CLASSIFICATION_TYPE":"U","NORAD_CAT_ID":39679,"ELEMENT_SET_NO":999,"REV_AT_EPOCH":65541,"BSTAR":0.00049244,"MEAN_MOTION_DOT":0.00022432,"MEAN_MOTION_DDOT":0},{"OBJECT_NAME":"ALOS-2","OBJECT_ID":"2014-029A","EPOCH":"2026-03-04T05:46:30.612576","MEAN_MOTION":14.79479069,"ECCENTRICITY":0.0001506,"INCLINATION":97.9205,"RA_OF_ASC_NODE":161.9169,"ARG_OF_PERICENTER":100.1773,"MEAN_ANOMALY":259.9609,"EPHEMERIS_TYPE":0,"CLASSIFICATION_TYPE":"U","NORAD_CAT_ID":39766,"ELEMENT_SET_NO":999,"REV_AT_EPOCH":63606,"BSTAR":0.00044123,"MEAN_MOTION_DOT":3.246e-5,"MEAN_MOTION_DDOT":0},{"OBJECT_NAME":"YAOGAN-29","OBJECT_ID":"2015-069A","EPOCH":"2026-03-04T04:39:45.627840","MEAN_MOTION":14.82988223,"ECCENTRICITY":0.0002238,"INCLINATION":98.0149,"RA_OF_ASC_NODE":91.6089,"ARG_OF_PERICENTER":45.3358,"MEAN_ANOMALY":314.8038,"EPHEMERIS_TYPE":0,"CLASSIFICATION_TYPE":"U","NORAD_CAT_ID":41038,"ELEMENT_SET_NO":999,"REV_AT_EPOCH":55506,"BSTAR":5.897e-5,"MEAN_MOTION_DOT":4.25e-6,"MEAN_MOTION_DDOT":0},{"OBJECT_NAME":"ASTRO-H (HITOMI)","OBJECT_ID":"2016-012A","EPOCH":"2026-03-04T03:32:23.094528","MEAN_MOTION":15.09958059,"ECCENTRICITY":0.0010017,"INCLINATION":31.0006,"RA_OF_ASC_NODE":32.3099,"ARG_OF_PERICENTER":275.9632,"MEAN_ANOMALY":83.9865,"EPHEMERIS_TYPE":0,"CLASSIFICATION_TYPE":"U","NORAD_CAT_ID":41337,"ELEMENT_SET_NO":999,"REV_AT_EPOCH":55139,"BSTAR":0.00030445,"MEAN_MOTION_DOT":5.164e-5,"MEAN_MOTION_DDOT":0}]
